{
  "type": "FeatureCollection",
  "features": [
    {
      "type": "Feature",
      "properties": {
        "norad_id": 41890,
        "name": "CYGFM07",
        "group": "weather",
        "lat": 32.17352952388703,
        "lon": 150.75497661370738,
        "alt_km": 409.07078839888254,
        "timestamp": "2025-12-02T19:35:50.205345+00:00",
        "meta_object_name": "CYGFM07",
        "meta_object_id": "2016-078G",
        "meta_epoch": "2025-12-02T11:34:17.333184",
        "meta_mean_motion": 15.49360249,
        "meta_eccentricity": 0.0008905,
        "meta_inclination": 34.9468,
        "meta_ra_of_asc_node": 88.675,
        "meta_arg_of_pericenter": 120.3689,
        "meta_mean_anomaly": 239.7914,
        "meta_ephemeris_type": 0,
        "meta_classification_type": "U",
        "meta_norad_cat_id": 41890,
        "meta_element_set_no": 999,
        "meta_rev_at_epoch": 49836,
        "meta_bstar": 0.00046041,
        "meta_mean_motion_dot": 0.00026098,
        "meta_mean_motion_ddot": 0,
        "tle_line1": "1 41890U 16078G   25336.48214506  .00026098  00000+0  46041-3 0  9995",
        "tle_line2": "2 41890  34.9468  88.6750 0008905 120.3689 239.7914 15.49360249498361"
      },
      "geometry": {
        "type": "Point",
        "coordinates": [
          150.75497661370738,
          32.17352952388703
        ]
      }
    },
    {
      "type": "Feature",
      "properties": {
        "norad_id": 41891,
        "name": "CYGFM03",
        "group": "weather",
        "lat": -34.86073204923278,
        "lon": -5.488954640178978,
        "alt_km": 426.08035468912567,
        "timestamp": "2025-12-02T19:35:50.205363+00:00",
        "meta_object_name": "CYGFM03",
        "meta_object_id": "2016-078H",
        "meta_epoch": "2025-12-02T10:43:10.051104",
        "meta_mean_motion": 15.49261535,
        "meta_eccentricity": 0.0008261,
        "meta_inclination": 34.9418,
        "meta_ra_of_asc_node": 90.819,
        "meta_arg_of_pericenter": 106.7096,
        "meta_mean_anomaly": 253.4533,
        "meta_ephemeris_type": 0,
        "meta_classification_type": "U",
        "meta_norad_cat_id": 41891,
        "meta_element_set_no": 999,
        "meta_rev_at_epoch": 49833,
        "meta_bstar": 0.0004579,
        "meta_mean_motion_dot": 0.00025858,
        "meta_mean_motion_ddot": 0,
        "tle_line1": "1 41891U 16078H   25336.44664411  .00025858  00000+0  45790-3 0  9999",
        "tle_line2": "2 41891  34.9418  90.8190 0008261 106.7096 253.4533 15.49261535498330"
      },
      "geometry": {
        "type": "Point",
        "coordinates": [
          -5.488954640178978,
          -34.86073204923278
        ]
      }
    },
    {
      "type": "Feature",
      "properties": {
        "norad_id": 43010,
        "name": "FENGYUN 3D",
        "group": "weather",
        "lat": 76.5298587788506,
        "lon": -98.37854115436365,
        "alt_km": 819.5197020053365,
        "timestamp": "2025-12-02T19:35:50.205375+00:00",
        "meta_object_name": "FENGYUN 3D",
        "meta_object_id": "2017-072A",
        "meta_epoch": "2025-12-02T12:27:22.605696",
        "meta_mean_motion": 14.19678905,
        "meta_eccentricity": 5.66e-05,
        "meta_inclination": 98.9879,
        "meta_ra_of_asc_node": 302.6769,
        "meta_arg_of_pericenter": 226.7421,
        "meta_mean_anomaly": 133.3708,
        "meta_ephemeris_type": 0,
        "meta_classification_type": "U",
        "meta_norad_cat_id": 43010,
        "meta_element_set_no": 999,
        "meta_rev_at_epoch": 41708,
        "meta_bstar": 9.3768e-05,
        "meta_mean_motion_dot": 1.52e-06,
        "meta_mean_motion_ddot": 0,
        "tle_line1": "1 43010U 17072A   25336.51901164  .00000152  00000+0  93768-4 0  9995",
        "tle_line2": "2 43010  98.9879 302.6769 0000566 226.7421 133.3708 14.19678905417089"
      },
      "geometry": {
        "type": "Point",
        "coordinates": [
          -98.37854115436365,
          76.5298587788506
        ]
      }
    },
    {
      "type": "Feature",
      "properties": {
        "norad_id": 43013,
        "name": "NOAA 20 (JPSS-1)",
        "group": "weather",
        "lat": -57.143667292371724,
        "lon": 79.41285819783587,
        "alt_km": 835.0980343276506,
        "timestamp": "2025-12-02T19:35:50.205386+00:00",
        "meta_object_name": "NOAA 20 (JPSS-1)",
        "meta_object_id": "2017-073A",
        "meta_epoch": "2025-12-02T10:01:14.414016",
        "meta_mean_motion": 14.19521277,
        "meta_eccentricity": 0.0002043,
        "meta_inclination": 98.7583,
        "meta_ra_of_asc_node": 272.8279,
        "meta_arg_of_pericenter": 102.0829,
        "meta_mean_anomaly": 258.0576,
        "meta_ephemeris_type": 0,
        "meta_classification_type": "U",
        "meta_norad_cat_id": 43013,
        "meta_element_set_no": 999,
        "meta_rev_at_epoch": 41655,
        "meta_bstar": 8.4566e-05,
        "meta_mean_motion_dot": 1.34e-06,
        "meta_mean_motion_ddot": 0,
        "tle_line1": "1 43013U 17073A   25336.41752794  .00000134  00000+0  84566-4 0  9997",
        "tle_line2": "2 43013  98.7583 272.8279 0002043 102.0829 258.0576 14.19521277416554"
      },
      "geometry": {
        "type": "Point",
        "coordinates": [
          79.41285819783587,
          -57.143667292371724
        ]
      }
    },
    {
      "type": "Feature",
      "properties": {
        "norad_id": 43226,
        "name": "GOES 17",
        "group": "weather",
        "lat": -0.06863892244296661,
        "lon": -83.64689695229629,
        "alt_km": 35771.9021214853,
        "timestamp": "2025-12-02T19:35:50.205401+00:00",
        "meta_object_name": "GOES 17",
        "meta_object_id": "2018-022A",
        "meta_epoch": "2025-12-02T09:24:38.486304",
        "meta_mean_motion": 1.00271944,
        "meta_eccentricity": 0.0003372,
        "meta_inclination": 0.4307,
        "meta_ra_of_asc_node": 89.3511,
        "meta_arg_of_pericenter": 180.5344,
        "meta_mean_anomaly": 213.2726,
        "meta_ephemeris_type": 0,
        "meta_classification_type": "U",
        "meta_norad_cat_id": 43226,
        "meta_element_set_no": 999,
        "meta_rev_at_epoch": 2845,
        "meta_bstar": 0,
        "meta_mean_motion_dot": -1.62e-06,
        "meta_mean_motion_ddot": 0,
        "tle_line1": "1 43226U 18022A   25336.39211211 -.00000162  00000+0  00000+0 0  9997",
        "tle_line2": "2 43226   0.4307  89.3511 0003372 180.5344 213.2726  1.00271944 28450"
      },
      "geometry": {
        "type": "Point",
        "coordinates": [
          -83.64689695229629,
          -0.06863892244296661
        ]
      }
    },
    {
      "type": "Feature",
      "properties": {
        "norad_id": 43491,
        "name": "FENGYUN 2H",
        "group": "weather",
        "lat": 0.1857961768182043,
        "lon": 85.19245104655984,
        "alt_km": 35797.36768667983,
        "timestamp": "2025-12-02T19:35:50.205414+00:00",
        "meta_object_name": "FENGYUN 2H",
        "meta_object_id": "2018-050A",
        "meta_epoch": "2025-12-02T09:01:29.881920",
        "meta_mean_motion": 1.00271536,
        "meta_eccentricity": 0.0002858,
        "meta_inclination": 2.5218,
        "meta_ra_of_asc_node": 81.4449,
        "meta_arg_of_pericenter": 161.6312,
        "meta_mean_anomaly": 43.1387,
        "meta_ephemeris_type": 0,
        "meta_classification_type": "U",
        "meta_norad_cat_id": 43491,
        "meta_element_set_no": 999,
        "meta_rev_at_epoch": 2746,
        "meta_bstar": 0,
        "meta_mean_motion_dot": -1.1e-06,
        "meta_mean_motion_ddot": 0,
        "tle_line1": "1 43491U 18050A   25336.37604030 -.00000110  00000+0  00000+0 0  9998",
        "tle_line2": "2 43491   2.5218  81.4449 0002858 161.6312  43.1387  1.00271536 27464"
      },
      "geometry": {
        "type": "Point",
        "coordinates": [
          85.19245104655984,
          0.1857961768182043
        ]
      }
    },
    {
      "type": "Feature",
      "properties": {
        "norad_id": 43689,
        "name": "METOP-C",
        "group": "weather",
        "lat": -50.70154365902314,
        "lon": 45.51304340541047,
        "alt_km": 827.5638679379972,
        "timestamp": "2025-12-02T19:35:50.205425+00:00",
        "meta_object_name": "METOP-C",
        "meta_object_id": "2018-087A",
        "meta_epoch": "2025-12-02T11:23:33.743904",
        "meta_mean_motion": 14.21505574,
        "meta_eccentricity": 0.0001741,
        "meta_inclination": 98.6944,
        "meta_ra_of_asc_node": 34.4008,
        "meta_arg_of_pericenter": 59.0934,
        "meta_mean_anomaly": 301.0415,
        "meta_ephemeris_type": 0,
        "meta_classification_type": "U",
        "meta_norad_cat_id": 43689,
        "meta_element_set_no": 999,
        "meta_rev_at_epoch": 36688,
        "meta_bstar": 0.00011383,
        "meta_mean_motion_dot": 2.05e-06,
        "meta_mean_motion_ddot": 0,
        "tle_line1": "1 43689U 18087A   25336.47469611  .00000205  00000+0  11383-3 0  9996",
        "tle_line2": "2 43689  98.6944  34.4008 0001741  59.0934 301.0415 14.21505574366883"
      },
      "geometry": {
        "type": "Point",
        "coordinates": [
          45.51304340541047,
          -50.70154365902314
        ]
      }
    }
  ]
}